ONEWEB-0578             
1 56067U 23043X   26193.68801898  .00000117  00000+0  25193-3 0  9996
2 56067  87.9237 238.8987 0002137  86.4959 273.6419 13.21826533161601
ONEWEB-0579             
1 56068U 23043Y   26193.60388888  .00000059  00000+0  11252-3 0  9994
2 56068  87.9259 238.9115 0002168 106.9274 253.2097 13.21827464161602
ONEWEB-0581             
1 56069U 23043Z   26193.53324777  .00000151  00000+0  36102-3 0  9998
2 56069  87.9076 223.7499 0001500  88.3111 271.8192 13.16595240162295
ONEWEB-0609             
1 56070U 23043AA  26193.66058383 -.00000110  00000+0 -32673-3 0  9997
2 56070  87.8984 254.1356 0002152  97.8941 262.2434 13.15547093159789
ONEWEB-0613             
1 56071U 23043AB  26193.65821027 -.00000042  00000+0 -14435-3 0  9990
2 56071  87.8988 254.1482 0002215 104.8343 255.3033 13.15547973159784
ONEWEB-0630             
1 56072U 23043AC  26193.65345566 -.00000187  00000+0 -53076-3 0  9994
2 56072  87.8985 254.1241 0002140  99.8148 260.3224 13.15549391159771
ONEWEB-0632             
1 56073U 23043AD  26193.72476582 -.00000052  00000+0 -17213-3 0  9990
2 56073  87.8989 254.1253 0001882  98.8770 261.2574 13.15547794159785
ONEWEB-0633             
1 56074U 23043AE  26193.71842719  .00000066  00000+0  14119-3 0  9994
2 56074  87.8993 254.1043 0002366 104.4260 255.7133 13.15549147159765
ONEWEB-0634             
1 56075U 23043AF  26193.70416880  .00000091  00000+0  20726-3 0  9999
2 56075  87.8989 254.1450 0002331  92.4356 267.7041 13.15548008159752
ONEWEB-0635             
1 56076U 23043AG  26193.69941270  .00000178  00000+0  43976-3 0  9992
2 56076  87.8997 254.1109 0001835  93.9011 266.2329 13.15547382159785
ONEWEB-0636             
1 56077U 23043AH  26193.69148368  .00000095  00000+0  21955-3 0  9991
2 56077  87.8990 254.1185 0001853 101.5058 258.6280 13.15547633159768
ONEWEB-0637             
1 56078U 23043AJ  26193.68514948  .00000122  00000+0  28992-3 0  9991
2 56078  87.8983 254.1346 0002001  90.0065 270.1295 13.15548282159784
ONEWEB-0647             
1 56079U 23043AK  26193.68039544  .00000053  00000+0  10683-3 0  9997
2 56079  87.8988 254.1470 0001984  97.8258 262.3098 13.15549087159773
ONEWEB-0651             
1 56080U 23043AL  26193.82776002  .00000091  00000+0  20734-3 0  9992
2 56080  87.8984 254.1117 0001870  93.3715 266.7629 13.15548014160995
ONEWEB-0718             
1 56081U 23043AM  26193.67088750 -.00000071  00000+0 -22296-3 0  9997
2 56081  87.9000 254.1216 0002558  96.8992 263.2429 13.15549252159785
ONEWEB-0561             
1 56710U 23068A   26193.72769850  .00000038  00000+0  62215-4 0  9993
2 56710  87.9189 269.3539 0001680 108.9500 251.1815 13.20769590152876
ONEWEB-0668             
1 56711U 23068B   26193.58391295  .00000021  00000+0  22426-4 0  9994
2 56711  87.9076 223.7283 0002350  82.6712 277.4686 13.16595039155128
ONEWEB-0676             
1 56712U 23068C   26193.59183581  .00000014  00000+0  29783-5 0  9999
2 56712  87.9075 223.7334 0001725  93.9054 266.2275 13.16594233155040
ONEWEB-0677             
1 56713U 23068D   26193.71593405  .00000042  00000+0  72107-4 0  9992
2 56713  87.9186 269.3485 0001894  90.4744 269.6606 13.20771524153174
ONEWEB-0678             
1 56714U 23068E   26193.71525804  .00000028  00000+0  41311-4 0  9998
2 56714  87.8997 254.1092 0002004 105.8759 254.2592 13.15547874152649
ONEWEB-0679             
1 56715U 23068F   26193.62666284  .00000066  00000+0  14008-3 0  9991
2 56715  87.9087 223.7160 0002051  77.2771 282.8589 13.16594183155076
ONEWEB-0680             
1 56716U 23068G   26193.68127434  .00000068  00000+0  13338-3 0  9994
2 56716  87.9242 238.8994 0002329  81.2146 278.9251 13.21825787154468
ONEWEB-0681             
1 56717U 23068H   26193.66192760  .00000043  00000+0  71754-4 0  9997
2 56717  87.9240 238.9038 0001092  89.2485 270.8774 13.21827576154455
ONEWEB-0682             
1 56718U 23068J   26193.66296867 -.00000031  00000+0 -11678-3 0  9998
2 56718  87.8989 254.1206 0002060  89.2252 270.9114 13.15548172152801
ONEWEB-0683             
1 56719U 23068K   26193.68673436  .00000149  00000+0  36163-3 0  9996
2 56719  87.9010 254.1130 0002180  94.6429 265.4951 13.15548327152779
ONEWEB-0684             
1 56720U 23068L   26193.69465575 -.00000006  00000+0 -49182-4 0  9992
2 56720  87.8992 254.1029 0002931 127.2347 232.9051 13.15549747152601
ONEWEB-0686             
1 56721U 23068M   26193.66308285 -.00000066  00000+0 -20681-3 0  9992
2 56721  87.9066 223.7314 0002417  94.4602 265.6805 13.16593292155060
ONEWEB-0694             
1 56722U 23068N   26193.59341751  .00000000  00000+0 -33212-4 0  9992
2 56722  87.9088 223.7147 0002298  84.7662 275.3731 13.16593326155114
ONEWEB-0696             
1 56723U 23068P   26193.72792718 -.00000053  00000+0 -17376-3 0  9992
2 56723  87.8985 254.1335 0002008 108.2260 251.9089 13.15549745152727
ONEWEB-0703             
1 56724U 23068Q   26193.66137624 -.00000047  00000+0 -15879-3 0  9994
2 56724  87.8986 254.1272 0001641 123.0948 237.0340 13.15548101152606
ONEWEB-0721             
1 56725U 23068R   26193.71267375  .00000048  00000+0  80124-4 0  9993
2 56725  86.6749  77.3675 0001796  78.9800 281.1535 13.22470848161313
